STARLINK-30381          
1 57785U 23134Q   25253.92208668  .00001465  00000+0  12354-3 0  9996
2 57785  43.0047  93.8680 0000988 270.6661  89.4068 15.02528831112430
STARLINK-30382          
1 57786U 23134R   25253.94205935 -.00000445  00000+0 -17872-4 0  9993
2 57786  43.0026  94.1104 0001165 265.9576  94.1134 15.02537509112432
STARLINK-30378          
1 57787U 23134S   25254.25114252  .00000807  00000+0  74815-4 0  9990
2 57787  43.0036  92.1280 0001015 262.0156  98.0571 15.02535158112484
STARLINK-30387          
1 57788U 23134T   25254.24143126  .00000116  00000+0  23674-4 0  9992
2 57788  43.0034  79.2485 0001705 269.8923  90.1724 15.02537719112634
STARLINK-30372          
1 57789U 23134U   25254.04235666  .00000336  00000+0  21754-4 0  9993
2 57789  43.0042  12.9283 0001115 273.6218  86.4506 15.27573109113399
STARLINK-30373          
1 57790U 23134V   25254.42179231  .01179296  00000+0  58369-2 0  9995
2 57790  42.9847  18.9529 0029565 346.3266  13.6800 15.78084804113351
STARLINK-30367          
1 57791U 23134W   25254.26113008  .00000678  00000+0  65225-4 0  9995
2 57791  43.0031  92.2029 0001251 264.5043  95.5656 15.02535785112482
STARLINK-30304          
1 57808U 23138A   25254.25004630  .00685288  00000+0  52556-2 0  9994
2 57808  42.9884 340.5016 0027850  20.1279 290.9597 15.68829511  5504
STARLINK-30374          
1 57809U 23138B   25253.94462212 -.00000818  00000+0 -45513-4 0  9993
2 57809  43.0011 133.1053 0001134 264.9319  95.1394 15.02527619111674
STARLINK-30394          
1 57810U 23138C   25253.94127920  .00000292  00000+0  36695-4 0  9994
2 57810  43.0022 133.0812 0001134 265.6843  94.3870 15.02539940111579
STARLINK-30379          
1 57811U 23138D   25254.07090405  .00000833  00000+0  76685-4 0  9991
2 57811  43.0018 132.3345 0001075 275.7870  84.2850 15.02541436111696
STARLINK-30395          
1 57812U 23138E   25254.06758151  .00002327  00000+0  18733-3 0  9999
2 57812  43.0032 132.3086 0000787 265.0978  94.9774 15.02525747111695
STARLINK-30403          
1 57813U 23138F   25254.06424570  .00000342  00000+0  40369-4 0  9991
2 57813  43.0025 132.2848 0001049 279.2699  80.8025 15.02540376111599
STARLINK-30413          
1 57814U 23138G   25253.37948973  .00000804  00000+0  74594-4 0  9993
2 57814  42.9989 135.7504 0001166 272.0041  88.0668 15.02537846111597
STARLINK-30398          
1 57815U 23138H   25253.39614031  .00000669  00000+0  64585-4 0  9999
2 57815  43.0028 135.8711 0001185 269.1191  90.9515 15.02534439111496
STARLINK-30386          
1 57816U 23138J   25254.05758904 -.00002351  00000+0 -15905-3 0  9995
2 57816  43.0038 132.2343 0001399 268.7307  91.3375 15.02534378111515
