[{"OBJECT_NAME":"STARLINK-30381","OBJECT_ID":"2023-134Q","EPOCH":"2025-09-10T22:07:48.289152","MEAN_MOTION":15.02528831,"ECCENTRICITY":9.882e-5,"INCLINATION":43.0047,"RA_OF_ASC_NODE":93.868,"ARG_OF_PERICENTER":270.6661,"MEAN_ANOMALY":89.4068,"EPHEMERIS_TYPE":0,"CLASSIFICATION_TYPE":"U","NORAD_CAT_ID":57785,"ELEMENT_SET_NO":999,"REV_AT_EPOCH":11243,"BSTAR":0.00012353542,"MEAN_MOTION_DOT":1.465e-5,"MEAN_MOTION_DDOT":0},{"OBJECT_NAME":"STARLINK-30382","OBJECT_ID":"2023-134R","EPOCH":"2025-09-10T22:36:33.927840","MEAN_MOTION":15.02537509,"ECCENTRICITY":0.00011653,"INCLINATION":43.0026,"RA_OF_ASC_NODE":94.1104,"ARG_OF_PERICENTER":265.9576,"MEAN_ANOMALY":94.1134,"EPHEMERIS_TYPE":0,"CLASSIFICATION_TYPE":"U","NORAD_CAT_ID":57786,"ELEMENT_SET_NO":999,"REV_AT_EPOCH":11243,"BSTAR":-1.7871622e-5,"MEAN_MOTION_DOT":-4.45e-6,"MEAN_MOTION_DDOT":0},{"OBJECT_NAME":"STARLINK-30378","OBJECT_ID":"2023-134S","EPOCH":"2025-09-11T06:01:38.713728","MEAN_MOTION":15.02535158,"ECCENTRICITY":0.0001015,"INCLINATION":43.0036,"RA_OF_ASC_NODE":92.128,"ARG_OF_PERICENTER":262.0156,"MEAN_ANOMALY":98.0571,"EPHEMERIS_TYPE":0,"CLASSIFICATION_TYPE":"U","NORAD_CAT_ID":57787,"ELEMENT_SET_NO":999,"REV_AT_EPOCH":11248,"BSTAR":7.4814627e-5,"MEAN_MOTION_DOT":8.07e-6,"MEAN_MOTION_DDOT":0},{"OBJECT_NAME":"STARLINK-30387","OBJECT_ID":"2023-134T","EPOCH":"2025-09-11T05:47:39.660864","MEAN_MOTION":15.02537719,"ECCENTRICITY":0.00017052,"INCLINATION":43.0034,"RA_OF_ASC_NODE":79.2485,"ARG_OF_PERICENTER":269.8923,"MEAN_ANOMALY":90.1724,"EPHEMERIS_TYPE":0,"CLASSIFICATION_TYPE":"U","NORAD_CAT_ID":57788,"ELEMENT_SET_NO":999,"REV_AT_EPOCH":11263,"BSTAR":2.3674342e-5,"MEAN_MOTION_DOT":1.16e-6,"MEAN_MOTION_DDOT":0},{"OBJECT_NAME":"STARLINK-30372","OBJECT_ID":"2023-134U","EPOCH":"2025-09-11T01:00:59.615424","MEAN_MOTION":15.27573109,"ECCENTRICITY":0.00011155,"INCLINATION":43.0042,"RA_OF_ASC_NODE":12.9283,"ARG_OF_PERICENTER":273.6218,"MEAN_ANOMALY":86.4506,"EPHEMERIS_TYPE":0,"CLASSIFICATION_TYPE":"U","NORAD_CAT_ID":57789,"ELEMENT_SET_NO":999,"REV_AT_EPOCH":11339,"BSTAR":2.1753913e-5,"MEAN_MOTION_DOT":3.36e-6,"MEAN_MOTION_DDOT":0},{"OBJECT_NAME":"STARLINK-30373","OBJECT_ID":"2023-134V","EPOCH":"2025-09-11T10:07:22.855584","MEAN_MOTION":15.78084804,"ECCENTRICITY":0.0029565,"INCLINATION":42.9847,"RA_OF_ASC_NODE":18.9529,"ARG_OF_PERICENTER":346.3266,"MEAN_ANOMALY":13.68,"EPHEMERIS_TYPE":0,"CLASSIFICATION_TYPE":"U","NORAD_CAT_ID":57790,"ELEMENT_SET_NO":999,"REV_AT_EPOCH":11335,"BSTAR":0.0058369,"MEAN_MOTION_DOT":0.01179296,"MEAN_MOTION_DDOT":0},{"OBJECT_NAME":"STARLINK-30367","OBJECT_ID":"2023-134W","EPOCH":"2025-09-11T06:16:01.638912","MEAN_MOTION":15.02535785,"ECCENTRICITY":0.0001251,"INCLINATION":43.0031,"RA_OF_ASC_NODE":92.2029,"ARG_OF_PERICENTER":264.5043,"MEAN_ANOMALY":95.5656,"EPHEMERIS_TYPE":0,"CLASSIFICATION_TYPE":"U","NORAD_CAT_ID":57791,"ELEMENT_SET_NO":999,"REV_AT_EPOCH":11248,"BSTAR":6.5224882e-5,"MEAN_MOTION_DOT":6.78e-6,"MEAN_MOTION_DDOT":0},{"OBJECT_NAME":"STARLINK-30304","OBJECT_ID":"2023-138A","EPOCH":"2025-09-11T06:00:04.000320","MEAN_MOTION":15.68829511,"ECCENTRICITY":0.00278508,"INCLINATION":42.9884,"RA_OF_ASC_NODE":340.5016,"ARG_OF_PERICENTER":20.1279,"MEAN_ANOMALY":290.9597,"EPHEMERIS_TYPE":0,"CLASSIFICATION_TYPE":"U","NORAD_CAT_ID":57808,"ELEMENT_SET_NO":999,"REV_AT_EPOCH":550,"BSTAR":0.0052555735,"MEAN_MOTION_DOT":0.00685288,"MEAN_MOTION_DDOT":0},{"OBJECT_NAME":"STARLINK-30374","OBJECT_ID":"2023-138B","EPOCH":"2025-09-10T22:40:15.351168","MEAN_MOTION":15.02527619,"ECCENTRICITY":0.00011349,"INCLINATION":43.0011,"RA_OF_ASC_NODE":133.1053,"ARG_OF_PERICENTER":264.9319,"MEAN_ANOMALY":95.1394,"EPHEMERIS_TYPE":0,"CLASSIFICATION_TYPE":"U","NORAD_CAT_ID":57809,"ELEMENT_SET_NO":999,"REV_AT_EPOCH":11167,"BSTAR":-4.5512978e-5,"MEAN_MOTION_DOT":-8.18e-6,"MEAN_MOTION_DDOT":0},{"OBJECT_NAME":"STARLINK-30394","OBJECT_ID":"2023-138C","EPOCH":"2025-09-10T22:35:26.522880","MEAN_MOTION":15.0253994,"ECCENTRICITY":0.00011341,"INCLINATION":43.0022,"RA_OF_ASC_NODE":133.0812,"ARG_OF_PERICENTER":265.6843,"MEAN_ANOMALY":94.387,"EPHEMERIS_TYPE":0,"CLASSIFICATION_TYPE":"U","NORAD_CAT_ID":57810,"ELEMENT_SET_NO":999,"REV_AT_EPOCH":11157,"BSTAR":3.6695063e-5,"MEAN_MOTION_DOT":2.92e-6,"MEAN_MOTION_DDOT":0},{"OBJECT_NAME":"STARLINK-30379","OBJECT_ID":"2023-138D","EPOCH":"2025-09-11T01:42:06.109920","MEAN_MOTION":15.02541436,"ECCENTRICITY":0.0001075,"INCLINATION":43.0018,"RA_OF_ASC_NODE":132.3345,"ARG_OF_PERICENTER":275.787,"MEAN_ANOMALY":84.285,"EPHEMERIS_TYPE":0,"CLASSIFICATION_TYPE":"U","NORAD_CAT_ID":57811,"ELEMENT_SET_NO":999,"REV_AT_EPOCH":11169,"BSTAR":7.668484e-5,"MEAN_MOTION_DOT":8.33e-6,"MEAN_MOTION_DDOT":0},{"OBJECT_NAME":"STARLINK-30395","OBJECT_ID":"2023-138E","EPOCH":"2025-09-11T01:37:19.042464","MEAN_MOTION":15.02525747,"ECCENTRICITY":7.87e-5,"INCLINATION":43.0032,"RA_OF_ASC_NODE":132.3086,"ARG_OF_PERICENTER":265.0978,"MEAN_ANOMALY":94.9774,"EPHEMERIS_TYPE":0,"CLASSIFICATION_TYPE":"U","NORAD_CAT_ID":57812,"ELEMENT_SET_NO":999,"REV_AT_EPOCH":11169,"BSTAR":0.0001873338,"MEAN_MOTION_DOT":2.327e-5,"MEAN_MOTION_DDOT":0},{"OBJECT_NAME":"STARLINK-30403","OBJECT_ID":"2023-138F","EPOCH":"2025-09-11T01:32:30.828480","MEAN_MOTION":15.02540376,"ECCENTRICITY":0.00010499,"INCLINATION":43.0025,"RA_OF_ASC_NODE":132.2848,"ARG_OF_PERICENTER":279.2699,"MEAN_ANOMALY":80.8025,"EPHEMERIS_TYPE":0,"CLASSIFICATION_TYPE":"U","NORAD_CAT_ID":57813,"ELEMENT_SET_NO":999,"REV_AT_EPOCH":11159,"BSTAR":4.0368985e-5,"MEAN_MOTION_DOT":3.42e-6,"MEAN_MOTION_DDOT":0},{"OBJECT_NAME":"STARLINK-30413","OBJECT_ID":"2023-138G","EPOCH":"2025-09-10T09:06:27.912672","MEAN_MOTION":15.02537846,"ECCENTRICITY":0.00011669,"INCLINATION":42.9989,"RA_OF_ASC_NODE":135.7504,"ARG_OF_PERICENTER":272.0041,"MEAN_ANOMALY":88.0668,"EPHEMERIS_TYPE":0,"CLASSIFICATION_TYPE":"U","NORAD_CAT_ID":57814,"ELEMENT_SET_NO":999,"REV_AT_EPOCH":11159,"BSTAR":7.459357e-5,"MEAN_MOTION_DOT":8.04e-6,"MEAN_MOTION_DDOT":0},{"OBJECT_NAME":"STARLINK-30398","OBJECT_ID":"2023-138H","EPOCH":"2025-09-10T09:30:26.522784","MEAN_MOTION":15.02534439,"ECCENTRICITY":0.00011851,"INCLINATION":43.0028,"RA_OF_ASC_NODE":135.8711,"ARG_OF_PERICENTER":269.1191,"MEAN_ANOMALY":90.9515,"EPHEMERIS_TYPE":0,"CLASSIFICATION_TYPE":"U","NORAD_CAT_ID":57815,"ELEMENT_SET_NO":999,"REV_AT_EPOCH":11149,"BSTAR":6.4584646e-5,"MEAN_MOTION_DOT":6.69e-6,"MEAN_MOTION_DDOT":0},{"OBJECT_NAME":"STARLINK-30386","OBJECT_ID":"2023-138J","EPOCH":"2025-09-11T01:22:55.693056","MEAN_MOTION":15.02534378,"ECCENTRICITY":0.00013998,"INCLINATION":43.0038,"RA_OF_ASC_NODE":132.2343,"ARG_OF_PERICENTER":268.7307,"MEAN_ANOMALY":91.3375,"EPHEMERIS_TYPE":0,"CLASSIFICATION_TYPE":"U","NORAD_CAT_ID":57816,"ELEMENT_SET_NO":999,"REV_AT_EPOCH":11151,"BSTAR":-0.00015904604,"MEAN_MOTION_DOT":-2.351e-5,"MEAN_MOTION_DDOT":0}]
